EARTHCARE               
1 59908U 24101A   24237.61662715  .00025613  00000+0  35724-3 0  9991
2 59908  96.9867   3.7945 0003533 192.2849 167.8321 15.56877989 13620
